OBJECT C                
1 57582U 23117C   24347.18466194  .00009915  00000+0  44681-3 0  9999
2 57582  97.4692  57.2316 0010459  40.5062 319.6950 15.21200237 74193
